NORAD_CAT_ID,OBJECT_NAME,OBJECT_TYPE,EPOCH,MEAN_MOTION,ECCENTRICITY,INCLINATION,RA_OF_ASC_NODE,ARG_OF_PERICENTER,MEAN_ANOMALY,BSTAR,MEAN_MOTION_DOT,MEAN_MOTION_DDOT,TLE_LINE0,TLE_LINE1,TLE_LINE2,SEMIMAJOR_AXIS,PERIOD,APOGEE,PERIGEE,DECAYED
51880.0,STARLINK-3566,PAYLOAD,2022-08-09 14:00:01,15.08783486,0.0002238,53.2175,121.4537,71.1999,267.0921,0.0028021,0.00044521,0.0,0 STARLINK-3566,1 51880U 22022AE  22221.58334491  .00044521  00000-0  28021-2 0  9997,2 51880  53.2175 121.4537 0002238  71.1999 267.0921 15.08783486  1302,6918.053000000001,95.441,541.466,538.37,0.0
51880.0,STARLINK-3566,PAYLOAD,2022-08-09 22:00:00,15.08824731,0.0002329,53.217,119.9587,68.801,281.0353,-0.0010883,-0.0001756,0.0,0 STARLINK-3566,1 51880U 22022AE  22221.91667824 -.00017560  00000-0 -10883-2 0  9995,2 51880  53.2170 119.9587 0002329  68.8010 281.0353 15.08824731  1306,6917.927,95.439,541.403,538.181,0.0
51880.0,STARLINK-3566,PAYLOAD,2022-08-10 14:00:01,15.08805812,0.0002271,53.2163,116.9649,71.7982,301.1919,0.0036536,0.00058287,0.0,0 STARLINK-3566,1 51880U 22022AE  22222.58334491  .00058287  00000-0  36536-2 0  9992,2 51880  53.2163 116.9649 0002271  71.7982 301.1919 15.08805812  1302,6917.985,95.44,541.4209999999998,538.279,0.0
51880.0,STARLINK-3566,PAYLOAD,2022-08-10 17:07:18,15.0882793,0.0002334,53.2165,116.3754,72.5071,287.3692,0.0017058,0.00026956,0.0,0 STARLINK-3566,1 51880U 22022AE  22222.71341435  .00026956  00000-0  17058-2 0  9999,2 51880  53.2165 116.3754 0002334  72.5071 287.3692 15.08827930 25790,6917.917,95.438,541.3969999999998,538.168,0.0
51880.0,STARLINK-3566,PAYLOAD,2022-08-10 22:00:00,15.08872053,0.0002387,53.2168,115.4596,68.7554,315.8092,-0.0052901,-0.00083582,0.0,0 STARLINK-3566,1 51880U 22022AE  22222.91667824 -.00083582  00000-0 -52901-2 0  9990,2 51880  53.2168 115.4596 0002387  68.7554 315.8092 15.08872053  1306,6917.781999999997,95.436,541.299,537.996,0.0
51880.0,STARLINK-3566,PAYLOAD,2022-08-11 14:00:01,15.08817018,0.0002236,53.2167,112.4759,72.7738,335.0024,0.0018422,0.00029134,0.0,0 STARLINK-3566,1 51880U 22022AE  22223.58334491  .00029134  00000-0  18422-2 0  9996,2 51880  53.2167 112.4759 0002236  72.7738 335.0024 15.08817018  1304,6917.951,95.439,541.362,538.269,0.0
51880.0,STARLINK-3566,PAYLOAD,2022-08-11 22:00:00,15.08843617,0.0002329,53.2168,110.981,69.4515,349.9038,-0.0012058,-0.0001943,0.0,0 STARLINK-3566,1 51880U 22022AE  22223.91667824 -.00019430  00000-0 -12058-2 0  9991,2 51880  53.2168 110.9810 0002329  69.4515 349.9038 15.08843617 25988,6917.869000000002,95.437,541.346,538.123,0.0
51880.0,STARLINK-3566,PAYLOAD,2022-08-12 14:00:01,15.08845508,0.000217,53.2167,107.9867,74.1648,8.4022,0.00093914,0.00014692,0.0,0 STARLINK-3566,1 51880U 22022AE  22224.58334491  .00014692  00000-0  93914-3 0  9990,2 51880  53.2167 107.9867 0002170  74.1648   8.4022 15.08845508 26082,6917.864000000001,95.437,541.23,538.227,0.0
51880.0,STARLINK-3566,PAYLOAD,2022-08-12 22:00:01,15.08845723,0.0002213,53.2166,106.4918,70.3852,23.8507,-0.00094053,-0.00015228,0.0,0 STARLINK-3566,1 51880U 22022AE  22224.91668981 -.00015228  00000-0 -94053-3 0  9994,2 51880  53.2166 106.4918 0002213  70.3852  23.8507 15.08845723  1301,6917.863,95.437,541.259,538.197,0.0
51880.0,STARLINK-3566,PAYLOAD,2022-08-13 06:00:02,15.08859545,0.0002138,53.2162,104.9952,68.1515,37.6746,-0.0033647,-0.00053471,0.0,0 STARLINK-3566,1 51880U 22022AE  22225.25002315 -.00053471  00000-0 -33647-2 0  9998,2 51880  53.2162 104.9952 0002138  68.1515  37.6746 15.08859545 26183,6917.821,95.436,541.165,538.207,0.0
51880.0,STARLINK-3566,PAYLOAD,2022-08-13 14:00:01,15.08803489,0.0001998,53.2162,103.4974,75.3448,42.0188,0.002843,0.00045204,0.0,0 STARLINK-3566,1 51880U 22022AE  22225.58334491  .00045204  00000-0  28430-2 0  9994,2 51880  53.2162 103.4974 0001998  75.3448  42.0188 15.08803489  1302,6917.9919999999975,95.44,541.239,538.475,0.0
51880.0,STARLINK-3566,PAYLOAD,2022-08-13 22:00:00,15.08835467,0.0002091,53.216,102.0027,71.3434,57.5918,-0.00088719,-0.00014379,0.0,0 STARLINK-3566,1 51880U 22022AE  22225.91667824 -.00014379  00000-0 -88719-3 0  9998,2 51880  53.2160 102.0027 0002091  71.3434  57.5918 15.08835467  1303,6917.894,95.438,541.206,538.313,0.0
51880.0,STARLINK-3566,PAYLOAD,2022-08-14 14:00:01,15.08828719,0.0002008,53.2156,99.0081,77.7882,74.3316,0.0025176,0.00039995,0.0,0 STARLINK-3566,1 51880U 22022AE  22226.58334491  .00039995  00000-0  25176-2 0  9999,2 51880  53.2156  99.0081 0002008  77.7882  74.3316 15.08828719 26384,6917.915,95.438,541.169,538.391,0.0
51880.0,STARLINK-3566,PAYLOAD,2022-08-14 22:00:00,15.08858968,0.0002048,53.2154,97.5133,72.6756,91.0444,-0.0032974,-0.00052413,0.0,0 STARLINK-3566,1 51880U 22022AE  22226.91667824 -.00052413  00000-0 -32974-2 0  9991,2 51880  53.2154  97.5133 0002048  72.6756  91.0444 15.08858968  1303,6917.821999999999,95.436,541.104,538.271,0.0
51880.0,STARLINK-3566,PAYLOAD,2022-08-15 06:00:00,15.08842267,0.0001965,53.215,96.0163,71.5659,103.7458,-0.0013254,-0.00021322,0.0,0 STARLINK-3566,1 51880U 22022AE  22227.25001157 -.00021322  00000-0 -13254-2 0  9995,2 51880  53.2150  96.0163 0001965  71.5659 103.7458 15.08842267 26480,6917.873000000001,95.437,541.0980000000002,538.379,0.0
51880.0,STARLINK-3566,PAYLOAD,2022-08-15 14:00:01,15.08822455,0.0001943999999999,53.2151,94.5186,78.8015,108.1003,0.0021703,0.00034405,0.0,0 STARLINK-3566,1 51880U 22022AE  22227.58334491  .00034405  00000-0  21703-2 0  9993,2 51880  53.2151  94.5186 0001944  78.8015 108.1003 15.08822455  1308,6917.934,95.439,541.144,538.4540000000002,0.0
51880.0,STARLINK-3566,PAYLOAD,2022-08-15 22:00:00,15.08841276,0.0002019,53.2151,93.0238,72.7899,125.7017,-0.00059101,-9.682e-05,0.0,0 STARLINK-3566,1 51880U 22022AE  22227.91667824 -.00009682  00000-0 -59101-3 0  9994,2 51880  53.2151  93.0238 0002019  72.7899 125.7017 15.08841276  1309,6917.876,95.437,541.138,538.345,0.0
51880.0,STARLINK-3566,PAYLOAD,2022-08-16 00:00:00,15.08833185,0.0002020999999999,53.2153,92.65,71.6796,219.7128,0.00042827,6.533e-05,0.0,0 STARLINK-3566,1 51880U 22022AE  22228.00001157  .00006533  00000-0  42827-3 0  9993,2 51880  53.2153  92.6500 0002021  71.6796 219.7128 15.08833185 26590,6917.901,95.438,541.164,538.368,0.0
51880.0,STARLINK-3566,PAYLOAD,2022-08-16 14:00:01,15.08816565,0.0001875,53.2151,90.029,78.4364,143.2397,0.0020605,0.00032636,0.0,0 STARLINK-3566,1 51880U 22022AE  22228.58334491  .00032636  00000-0  20605-2 0  9998,2 51880  53.2151  90.0290 0001875  78.4364 143.2397 15.08816565  1302,6917.9519999999975,95.439,541.114,538.52,0.0
51880.0,STARLINK-3566,PAYLOAD,2022-08-16 22:00:00,15.08829708,0.0001978,53.2152,88.5343,71.7138,161.546,0.00029366,4.387e-05,0.0,0 STARLINK-3566,1 51880U 22022AE  22228.91667824  .00004387  00000-0  29366-3 0  9990,2 51880  53.2152  88.5343 0001978  71.7138 161.5460 15.08829708  1300,6917.9119999999975,95.438,541.145,538.408,0.0
51880.0,STARLINK-3566,PAYLOAD,2022-08-17 16:00:00,15.08846972,0.000186,53.2159,85.1659,77.0248,272.3097,-0.0019091999999999,-0.00030551,0.0,0 STARLINK-3566,1 51880U 22022AE  22229.66667824 -.00030551  00000-0 -19092-2 0  9991,2 51880  53.2159  85.1659 0001860  77.0248 272.3097 15.08846972  1300,6917.859,95.437,541.011,538.437,0.0
51880.0,STARLINK-3566,PAYLOAD,2022-08-18 08:00:01,15.08837637,0.0001814,53.2162,82.1732,73.6363,298.8729,-0.00010951,-2.03e-05,0.0,0 STARLINK-3566,1 51880U 22022AE  22230.33334491 -.00002030  00000-0 -10951-3 0  9995,2 51880  53.2162  82.1732 0001814  73.6363 298.8729 15.08837637 26953,6917.888000000001,95.438,541.008,538.498,0.0
51880.0,STARLINK-3566,PAYLOAD,2022-08-18 14:00:01,15.08837018,0.0001834,53.2164,81.0504,77.5102,213.691,0.0018873,0.00029874,0.0,0 STARLINK-3566,1 51880U 22022AE  22230.58334491  .00029874  00000-0  18873-2 0  9995,2 51880  53.2164  81.0504 0001834  77.5102 213.6910 15.08837018  1308,6917.89,95.438,541.023,538.486,0.0
51880.0,STARLINK-3566,PAYLOAD,2022-08-18 22:00:00,15.08859274,0.0001886999999999,53.2166,79.5558,69.8687,232.9461,-0.0015399,-0.00024725,0.0,0 STARLINK-3566,1 51880U 22022AE  22230.91667824 -.00024725  00000-0 -15399-2 0  9993,2 51880  53.2166  79.5558 0001887  69.8687 232.9461 15.08859274  1304,6917.821,95.436,540.992,538.381,0.0
51880.0,STARLINK-3566,PAYLOAD,2022-08-19 06:00:00,15.0886595,0.0001685,53.2166,78.0585,70.5685,243.8514,-0.0047,-0.0007437,0.0,0 STARLINK-3566,1 51880U 22022AE  22231.25001157 -.00074370  00000-0 -47000-2 0  9997,2 51880  53.2166  78.0585 0001685  70.5685 243.8514 15.08865950 27082,6917.801,95.436,540.832,538.5,0.0
51880.0,STARLINK-3566,PAYLOAD,2022-08-19 14:00:01,15.08813367,0.0001602,53.2171,76.5613,76.4597,249.5578,0.0016262,0.00025669,0.0,0 STARLINK-3566,1 51880U 22022AE  22231.58334491  .00025669  00000-0  16262-2 0  9994,2 51880  53.2171  76.5613 0001602  76.4597 249.5578 15.08813367  1304,6917.962,95.439,540.935,538.719,0.0
51880.0,STARLINK-3566,PAYLOAD,2022-08-19 22:00:00,15.08811201,0.0001710999999999,53.2171,75.0669,68.0985,269.4896,0.001171,0.00018383,0.0,0 STARLINK-3566,1 51880U 22022AE  22231.91667824  .00018383  00000-0  11710-2 0  9998,2 51880  53.2171  75.0669 0001711  68.0985 269.4896 15.08811201  1307,6917.968000000003,95.439,541.0169999999998,538.65,0.0
51880.0,STARLINK-3566,PAYLOAD,2022-08-20 14:00:01,15.08835219,0.0001584,53.2173,72.0727,77.7207,283.0128,0.0010192,0.00015968,0.0,0 STARLINK-3566,1 51880U 22022AE  22232.58334491  .00015968  00000-0  10192-2 0  9992,2 51880  53.2173  72.0727 0001584  77.7207 283.0128 15.08835219  1319,6917.895,95.438,540.856,538.664,0.0
51880.0,STARLINK-3566,PAYLOAD,2022-08-20 22:00:00,15.0882659,0.0001679,53.2171,70.5781,69.4187,302.9098,0.0013534,0.00021309,0.0,0 STARLINK-3566,1 51880U 22022AE  22232.91667824  .00021309  00000-0  13534-2 0  9997,2 51880  53.2171  70.5781 0001679  69.4187 302.9098 15.08826590  1308,6917.920999999999,95.438,540.948,538.625,0.0
